#cP2006  7 19  0  0  0.00000000      96 ORBIT IGb00 HLM  IGS
## 1384 259200.00000000   900.00000000 53935 0.0000000000000
+   29   G01G02G03G04G05G06G07G08G09G10G11G13G14G15G16G17G18
+        G19G20G21G22G23G24G25G26G27G28G29G30  0  0  0  0  0
+          0  0  0  0  0  0  0  0  0  0  0  0  0  0  0  0  0
+          0  0  0  0  0  0  0  0  0  0  0  0  0  0  0  0  0
+          0  0  0  0  0  0  0  0  0  0  0  0  0  0  0  0  0
++         3  3  4  2  3  3  3  3  3  3  3  3  3  3  3  4  3
++         3  3  3  3  3  3  3  3  3  3  3  3  0  0  0  0  0
++         0  0  0  0  0  0  0  0  0  0  0  0  0  0  0  0  0
++         0  0  0  0  0  0  0  0  0  0  0  0  0  0  0  0  0
++         0  0  0  0  0  0  0  0  0  0  0  0  0  0  0  0  0
%c G  cc GPS ccc cccc cccc cccc cccc ccccc ccccc ccccc ccccc
%c cc cc ccc ccc cccc cccc cccc cccc ccccc ccccc ccccc ccccc
%f  1.2500000  1.025000000  0.00000000000  0.000000000000000
%f  0.0000000  0.000000000  0.00000000000  0.000000000000000
%i    0    0    0    0      0      0      0      0         0
%i    0    0    0    0      0      0      0      0         0
/* FINAL ORBIT COMBINATION FROM WEIGHTED AVERAGE OF:        
/* cod emr esa gfz jpl mit ngs sio                          
/* REFERENCED TO IGS TIME (IGST) AND TO WEIGHTED MEAN POLE: 
/* CLK ANT Z-OFFSET (M): II/IIA 1.023; IIR 0.000            
*  2006  7 19  9 45  0.00000000
PG01 -15562.035115  20949.375327  -4584.062586     66.206677  8  8  7 135       
PG02  16142.839096 -12574.264361  16564.276660     15.244302  8  7  9 147       
PG03 -10908.581299  23983.839155   1300.768065    215.242103 11 13  7 129       
PG04  24959.664240  -5965.082754   7477.510730    277.461493  5  8  9 143       
PG05 -11617.373940 -23159.792942  -6431.185544    235.514195  9  9 11 138       
PG06 -12404.909999 -10460.833688  21217.387139    590.380910  8  9  8 128       
PG07 -18044.827026  12612.656213  15282.765928    540.374551  8 10  5 102       
PG08  26784.966613    142.316035    183.702667    -72.990280  9  9 10 150       
PG09  -5338.536423 -14912.384018 -21912.507742     28.531344  8 11  9 153       
PG10   3879.967881 -18212.747404  18719.041592     86.805927  4  7  6 129       
PG11   8568.832389  14903.350302 -20352.326705    340.148535 10 10  4 130       
PG13  11078.565757   9674.938407  22026.350125     78.436112 10  9  8 142       
PG14 -17903.411146   9046.790178 -17311.720872     -9.535454  9  9  8 149       
PG15 -26784.814591   -477.774122   -590.368773    647.503653 10 10  8 131       
PG16  -7890.578313  14675.974761  20743.315979     57.815808  8  9  7 143       
PG17  18142.074566  -7947.281647 -17651.995351    100.162149 11  9 11 125       
PG18 -18394.781322 -15206.684058 -11877.983676   -243.567644  8  7  9 145       
PG19  -6016.956585  23735.271041 -10105.614537      1.610257  7  8  7 118       
PG20  13231.321627  22969.982617  -1972.110290    -24.055606 11  8  9 148       
PG21 -24916.537376  -5822.893715   8172.403940     42.525047 12 10 11 156       
PG22 -17208.380115  -1674.454164 -20013.390287    117.671484 10  9  9 154       
PG23   3305.396939  19592.376101  17443.433224    138.255418 10  9  7 149       
PG24  26708.660505    333.618539    -97.194575     21.819434  7  9  5 135       
PG25 -20719.971899  11649.688356  12391.165988    172.439623  7  7  4 129       
PG26   6731.037125 -23941.766105  -8837.881939   -184.988536  8  7  7 120       
PG27  24009.951322   5314.141923  11040.730286     58.700830  9 11  8 151       
PG28  18392.103099   5936.862248 -18075.954823     22.816158 11 10 10 134       
PG29   9083.088940 -24321.013253  -4590.715003    629.919068  9  7 10 122       
PG30 -18012.585549 -18556.184187   6038.759247      4.107985 10  7  6 129       
*  2006  7 19 10  0  0.00000000
PG01 -15385.949374  20242.045046  -7387.389908     66.207196  9  8  7 137       
PG02  17989.533253 -12499.596377  14613.731896     15.247773  9  8  9 148       
PG03 -11146.666959  23542.353743   4080.178506    215.223938 11 13  8 123       
PG04  25672.971274  -5754.389631   4780.788558    277.467668  5  8  9 132       
PG05 -10857.384856 -22668.884222  -9043.624000    235.542459  9  9 11 141       
PG06 -11383.644963 -12593.439429  20610.904206    590.386186  8  8  8 136       
PG07 -17546.427741  10870.997778  17121.417510    540.373428  7 10  5 115       
PG08  26593.721395    334.838918   3033.563513    -72.991467  9 10  9 150       
PG09  -2955.190623 -15190.032735 -22153.997357     28.531964  8 11  9 149       
PG10   5199.875362 -16395.105241  20052.614898     86.807172  5  6  5 135       
PG11   6277.909838  15477.604394 -20733.716776    340.150747 10 10  4 132       
PG13   9906.872727  11886.072283  21502.665232     78.438986 10  9  7 145       
PG14 -17070.645480   7133.030594 -18967.369783     -9.534639  9  8  9 157       
PG15 -26676.317431   -713.573112   2229.770452    647.509790 10 10  8 135       
PG16  -9276.699437  12717.306536  21463.803179     57.818282  8  9  7 146       
PG17  17350.677683  -5986.788786 -19165.988187    100.161819 11 10 11 123       
PG18 -18859.406100 -16357.960869  -9411.707491   -243.568949  8  7  9 136       
PG19  -6733.081573  24507.063078  -7499.490672      1.612619  7  7  7 115       
PG20  12802.690866  22809.740774  -4784.189540    -24.055573 11  8  8 154       
PG21 -23869.176671  -6097.663621  10679.936192     42.527199 12 10 11 152       
PG22 -18275.674457  -3659.497900 -18775.760775    117.674924  9  8 10 157       
PG23   2330.322093  21242.390311  15564.314004    138.255167 10  8  7 139       
PG24  26517.264709    576.498458  -2927.444797     21.822254  7  8  5 131       
PG25 -21960.448803  11640.741404   9956.323807    172.505824  7  7  5 125       
PG26   7278.822885 -24575.888811  -6060.939046   -185.000719  8  7  7 118       
PG27  22742.717406   5668.311831  13397.269824     58.701634  9 11  8 151       
PG28  19371.107862   7698.950459 -16364.946559     22.815769 11 10 10 135       
PG29   9431.409044 -24584.826006  -1696.132491    629.921001  8  7 10 119       
PG30 -18115.359651 -19181.897750   3289.089908      4.108645 10  7  6 132       
*  2006  7 19 10 15  0.00000000
PG01 -15120.720171  19240.704162 -10062.359383     66.207178  9  7  7 135       
PG02  19601.451222 -12485.028288  12405.140447     15.250875 10  7  9 146       
PG03 -11313.219836  22814.015955   6787.785930    215.205701 11 13  9 110       
PG04  26090.770956  -5545.617521   2003.426804    277.474603  6  8  9 135       
PG05  -9884.301334 -22005.395115 -11503.062585    235.570620  9  9 10 145       
PG06 -10496.432361 -14692.112115  19655.369897    590.391075  8  8  7 128       
PG07 -17071.835628   8930.177972  18673.828648    540.372428  7 10  5 111       
PG08  26097.188200    568.354780   5832.401126    -72.993051 10 10  9 151       
PG09   -581.244794 -15597.207992 -22033.513657     28.531150  8 10  9 149       
PG10   6692.145357 -14545.798063  21035.584760     86.807562  6  6  5 149       
PG11   3988.877961  16154.718709 -20760.904767    340.152563 10 11  5 131       
PG13   8895.667645  14085.446282  20606.106091     78.442127 10  8  8 156       
PG14 -16279.773791   5019.463507 -20294.269768     -9.533781 10  8  9 150       
PG15 -26266.669967   -974.484048   5012.442882    647.515899 10  9  8 121       
PG16 -10799.552491  10786.843628  21817.336823     57.820982  8 10  8 143       
PG17  16603.667513  -3847.523139 -20349.323811    100.161585 11 10 11 127       
PG18 -19218.661457 -17247.379716  -6785.604478   -243.569864  9  7  9 136       
PG19  -7275.479825  25041.742499  -4763.383619      1.614691  7  7  7  93       
PG20  12173.482345  22425.444526  -7514.218494    -24.055408 11  7  8 140       
PG21 -22567.703450  -6451.329279  13009.542399     42.529546 12 10 10 152       
PG22 -19351.515232  -5455.643687 -17211.217025    117.678103  9  8 10 156       
PG23   1530.728065  22729.290917  13413.598306    138.254951 10  8  7 138       
PG24  26023.735365    857.058069  -5707.981352     21.824677  7  8  5 130       
PG25 -22927.196886  11631.142682   7354.228752    172.572576  8  6  6 136       
PG26   7663.473352 -24942.730746  -3177.073099   -185.012729  8  6  7 105       
PG27  21254.062785   6135.000458  15534.257675     58.703391  9 11  9 155       
PG28  20314.192656   9234.336168 -14370.418441     22.815084 11 10 10 128       
PG29   9638.933196 -24558.857214   1228.246833    629.923021  8  6 10 113       
PG30 -18050.709784 -19558.125593    482.958331      4.108784 10  8  7 132       
EOF
